ONEWEB-0694             
1 56722U 23068N   24110.26935835  .00000041  00000+0  72511-4 0  9994
2 56722  87.9144  25.7694 0002343  80.2906 279.8489 13.16591887 47969
ONEWEB-0696             
1 56723U 23068P   24110.38211557  .00000092  00000+0  20952-3 0  9993
2 56723  87.9033  56.1953 0001647  77.9053 282.2262 13.15547167 45657
ONEWEB-0703             
1 56724U 23068Q   24110.39162389  .00000042  00000+0  77958-4 0  9997
2 56724  87.9034  56.2149 0000669  64.4238 295.6961 13.15547702 45543
ONEWEB-0721             
1 56725U 23068R   24110.62542616  .00007165  00000+0  84180-3 0  9996
2 56725  86.6821   0.5672 0012882 113.5256 246.7323 14.84715111 49825
